MONITOR-3 (RS58S)       
1 57180U 23091Q   26168.91873236  .00009028  00000+0  33387-3 0  9993
2 57180  97.5079 232.3700 0013100  98.5751 261.6973 15.27854318164400
MONITOR-4 (RS57S)       
1 57182U 23091S   26168.89774852  .00008632  00000+0  31855-3 0  9994
2 57182  97.5073 232.3204 0013093  98.9441 261.3281 15.27939578164407
MONITOR-2 (RS39S)       
1 57184U 23091U   26168.90559823  .00004357  00000+0  21161-3 0  9996
2 57184  97.5069 227.1838 0012749 108.9465 251.3152 15.18916443164068
SVYATOBOR 1 (RS60S)     
1 57187U 23091X   26168.91145076  .00007490  00000+0  28823-3 0  9994
2 57187  97.5085 232.7323 0010876  92.3437 267.9047 15.26626078164421
HORS 1                  
1 57188U 23091Y   26168.89693967  .00007413  00000+0  28442-3 0  9991
2 57188  97.5063 232.4801 0010327  92.2059 268.0362 15.26732901164421
VIZARD-METEO (RS38S)    
1 57189U 23091Z   26168.92935474  .00014300  00000+0  40901-3 0  9995
2 57189  97.5090 238.4294 0008220  75.4198 284.7956 15.36046699164809
SITRO-AIS 6 (CHIRKIN)   
1 57192U 23091AC  26168.90114457  .00008364  00000+0  32787-3 0  9993
2 57192  97.5064 231.9225 0013100 104.2536 256.0158 15.25946701164397
SITRO-AIS 8 (ANOKHIN)   
1 57193U 23091AD  26168.93624981  .00012685  00000+0  41007-3 0  9991
2 57193  97.5052 234.4343 0011775  97.7783 262.4796 15.32154226164569
SITRO-AIS 7 (FARTUSHNIY)
1 57194U 23091AE  26168.90443932  .00008278  00000+0  32759-3 0  9991
2 57194  97.5061 231.7507 0012961 105.1788 255.0884 15.25634813164382
AVION KALUGA 650        
1 57195U 23091AF  26168.88616744  .00004494  00000+0  20934-3 0  9990
2 57195  97.5086 228.4597 0011911 107.2148 253.0392 15.20359153164130
HORS 2                  
1 57196U 23091AG  26168.94806060  .00011431  00000+0  37297-3 0  9999
2 57196  97.5086 235.9880 0009328  85.5635 274.6672 15.31908397164645
A-SEANSAT-PG1           
1 57197U 23091AH  26168.92265815  .00015337  00000+0  42550-3 0  9992
2 57197  97.5078 238.5196 0008240  82.9022 277.3159 15.36981865164825
SITRO-AIS 10 (BURDAEV)  
1 57199U 23091AK  26168.89960991  .00017044  00000+0  44802-3 0  9996
2 57199  97.5079 239.4588 0007453  78.2622 281.9458 15.38636050164875
SITRO-AIS 9 (SHCHUKIN)  
1 57201U 23091AM  26168.92623748  .00016263  00000+0  43449-3 0  9998
2 57201  97.5077 239.2155 0007719  78.1534 282.0576 15.38143405164860
UTMN 2 (RS27S)          
1 57203U 23091AP  26168.90988740  .00010752  00000+0  34929-3 0  9994
2 57203  97.5084 236.1409 0009219  81.5436 278.6850 15.32067629164654
SITRO-AIS 12 (SMIRENNIY)
1 57204U 23091AQ  26168.91671799  .00016146  00000+0  42735-3 0  9996
2 57204  97.5090 239.6732 0007242  73.3262 286.8777 15.38436816164887
SITRO-AIS 11 (SHEFFER)  
1 57208U 23091AU  26168.92993177  .00016908  00000+0  44127-3 0  9991
2 57208  97.5088 239.9341 0007132  73.2744 286.9283 15.38861691164908
H2SAT (HEINRICH HERTZ)  
1 57213U 23093A   26168.89696231 -.00000004  00000+0  00000+0 0  9995
2 57213   0.0575 105.7160 0000823  92.8518  31.1905  1.00270744 10929
KUZGTU 1 (RS47S)        
1 57217U 23091AV  26168.94981040  .00010129  00000+0  35190-3 0  9998
2 57217  97.5061 233.4376 0012286  95.6188 264.6453 15.29877570164491
QIANKUN-1               
1 57422U 23103B   26166.36556735  .00020233  18381-5  23233-4 0  9993
2 57422  96.1468 211.3446 0029378 145.9035 214.4147 16.08420909167009
FENGYUN 3F              
1 57490U 23111A   26168.96073255  .00000031  00000+0  34895-4 0  9999
2 57490  98.6836 238.9550 0001593  92.8881 267.2478 14.19939198148972
HJ-2F                   
1 57519U 23116A   26168.97550329  .00006402  00000+0  28033-3 0  9993
2 57519  97.3840 174.1802 0009802  49.8530 310.3564 15.22330188158875
XRISM                   
1 57800U 23137A   26168.91659850  .00004046  00000+0  22132-3 0  9998
2 57800  31.0032 354.8773 0007954 331.0868  28.9330 15.12472233152971
METEOR-M2 4             
1 59051U 24039A   26168.95719581  .00000012  00000+0  24841-4 0  9991
2 59051  98.7010 128.2455 0007336 158.8228 201.3255 14.22429630119379
GRBBETA                 
1 60237U 24128C   26168.48551437  .00002424  00000+0  17435-3 0  9999
2 60237  61.9882 215.2195 0040617 134.7304 225.7108 15.06640908106314
TRANSPORTER-11 OBJECT A 
1 60468U 24149A   26168.74099708  .00006771  00000+0  21545-3 0  9991
2 60468  97.3732 248.6691 0002903 191.3056 168.8121 15.32913785102141
WARATAH SEED-1          
1 60469U 24149B   26168.82772684  .00011318  00000+0  32550-3 0  9993
2 60469  97.3690 249.4028 0001607 176.5952 183.5303 15.35959616102218
PHISAT 2                
1 60470U 24149C   26168.76621075  .00007301  00000+0  24577-3 0  9992
2 60470  97.3756 247.9791 0001118 173.9878 186.1377 15.31074109102084
LEMUR-2-TOMATOKECHUP    
1 60471U 24149D   26168.75878201  .00009126  00000+0  26226-3 0  9997
2 60471  97.3800 250.8069 0001501 174.1749 185.9513 15.36043764102258
